{"type": "FeatureCollection", "features": [ {"type": "Feature", "properties": {"norad_id": 31660, "name": "FENGYUN 1C DEB", "group": "fengyun-1c-debris", "lat": 71.11384916944975, "lon": -23.714568889246852, "alt_km": 762.4795423363175, "timestamp": "2025-12-27T06:41:31.209956+00:00", "meta": {"OBJECT_NAME": "FENGYUN 1C DEB", "OBJECT_ID": "1999-025CBS", "EPOCH": "2025-12-25T19:00:51.233760", "MEAN_MOTION": 14.27158223, "ECCENTRICITY": 0.01023474, "INCLINATION": 98.5066, "RA_OF_ASC_NODE": 0.7825, "ARG_OF_PERICENTER": 142.3016, "MEAN_ANOMALY": 218.5394, "EPHEMERIS_TYPE": 0, "CLASSIFICATION_TYPE": "U", "NORAD_CAT_ID": 31660, "ELEMENT_SET_NO": 999, "REV_AT_EPOCH": 8102, "BSTAR": 0.00055332784, "MEAN_MOTION_DOT": 1.386e-05, "MEAN_MOTION_DDOT": 0}, "tle": {"line1": "1 31660U 99025CBS 25359.79225965  .00001386  00000+0  55333-3 0  9999", "line2": "2 31660  98.5066   0.7825 0102347 142.3016 218.5394 14.27158223 81026"}}, "geometry": {"type": "Point", "coordinates": [-23.714568889246852, 71.11384916944975]}}, {"type": "Feature", "properties": {"norad_id": 31661, "name": "FENGYUN 1C DEB", "group": "fengyun-1c-debris", "lat": 49.26288996592233, "lon": 70.07515140446203, "alt_km": 830.7213451614834, "timestamp": "2025-12-27T06:41:31.209968+00:00", "meta": {"OBJECT_NAME": "FENGYUN 1C DEB", "OBJECT_ID": "1999-025CBT", "EPOCH": "2025-12-24T16:50:35.606400", "MEAN_MOTION": 14.25524803, "ECCENTRICITY": 0.00590656, "INCLINATION": 98.8598, "RA_OF_ASC_NODE": 77.9062, "ARG_OF_PERICENTER": 190.1629, "MEAN_ANOMALY": 322.7954, "EPHEMERIS_TYPE": 0, "CLASSIFICATION_TYPE": "U", "NORAD_CAT_ID": 31661, "ELEMENT_SET_NO": 999, "REV_AT_EPOCH": 95883, "BSTAR": 0.0016959684, "MEAN_MOTION_DOT": 4.04e-05, "MEAN_MOTION_DDOT": 0}, "tle": {"line1": "1 31661U 99025CBT 25358.70180100  .00004040  00000+0  16960-2 0  9993", "line2": "2 31661  98.8598  77.9062 0059065 190.1629 322.7954 14.25524803958839"}}, "geometry": {"type": "Point", "coordinates": [70.07515140446203, 49.26288996592233]}}, {"type": "Feature", "properties": {"norad_id": 31663, "name": "FENGYUN 1C DEB", "group": "fengyun-1c-debris", "lat": 27.58437519992908, "lon": -94.13912707807927, "alt_km": 767.007448553929, "timestamp": "2025-12-27T06:41:31.209978+00:00", "meta": {"OBJECT_NAME": "FENGYUN 1C DEB", "OBJECT_ID": "1999-025CBV", "EPOCH": "2025-12-24T00:29:19.607712", "MEAN_MOTION": 14.76454332, "ECCENTRICITY": 0.01900004, "INCLINATION": 98.8389, "RA_OF_ASC_NODE": 266.9581, "ARG_OF_PERICENTER": 201.7959, "MEAN_ANOMALY": 157.5086, "EPHEMERIS_TYPE": 0, "CLASSIFICATION_TYPE": "U", "NORAD_CAT_ID": 31663, "ELEMENT_SET_NO": 999, "REV_AT_EPOCH": 99446, "BSTAR": 0.00025673449, "MEAN_MOTION_DOT": 2.328e-05, "MEAN_MOTION_DDOT": 0}, "tle": {"line1": "1 31663U 99025CBV 25358.02036583  .00002328  00000+0  25673-3 0  9994", "line2": "2 31663  98.8389 266.9581 0190000 201.7959 157.5086 14.76454332994469"}}, "geometry": {"type": "Point", "coordinates": [-94.13912707807927, 27.58437519992908]}}, {"type": "Feature", "properties": {"norad_id": 31664, "name": "FENGYUN 1C DEB", "group": "fengyun-1c-debris", "lat": -6.313791523672, "lon": -6.617430886123841, "alt_km": 911.0893469213042, "timestamp": "2025-12-27T06:41:31.209989+00:00", "meta": {"OBJECT_NAME": "FENGYUN 1C DEB", "OBJECT_ID": "1999-025CBW", "EPOCH": "2025-12-26T22:12:32.571072", "MEAN_MOTION": 14.10313826, "ECCENTRICITY": 0.01253801, "INCLINATION": 98.7525, "RA_OF_ASC_NODE": 352.0618, "ARG_OF_PERICENTER": 118.0915, "MEAN_ANOMALY": 243.2997, "EPHEMERIS_TYPE": 0, "CLASSIFICATION_TYPE": "U", "NORAD_CAT_ID": 31664, "ELEMENT_SET_NO": 999, "REV_AT_EPOCH": 96201, "BSTAR": 0.0003835461, "MEAN_MOTION_DOT": 6.9e-06, "MEAN_MOTION_DDOT": 0}, "tle": {"line1": "1 31664U 99025CBW 25360.92537698  .00000690  00000+0  38355-3 0  9991", "line2": "2 31664  98.7525 352.0618 0125380 118.0915 243.2997 14.10313826962010"}}, "geometry": {"type": "Point", "coordinates": [-6.617430886123841, -6.313791523672]}}, {"type": "Feature", "properties": {"norad_id": 31665, "name": "FENGYUN 1C DEB", "group": "fengyun-1c-debris", "lat": 51.06228127424273, "lon": -126.59765627961598, "alt_km": 810.4422699951638, "timestamp": "2025-12-27T06:41:31.209999+00:00", "meta": {"OBJECT_NAME": "FENGYUN 1C DEB", "OBJECT_ID": "1999-025CBX", "EPOCH": "2025-12-16T08:14:19.517280", "MEAN_MOTION": 13.84829693, "ECCENTRICITY": 0.01897318, "INCLINATION": 98.4487, "RA_OF_ASC_NODE": 32.9474, "ARG_OF_PERICENTER": 177.2489, "MEAN_ANOMALY": 182.9759, "EPHEMERIS_TYPE": 0, "CLASSIFICATION_TYPE": "U", "NORAD_CAT_ID": 31665, "ELEMENT_SET_NO": 999, "REV_AT_EPOCH": 93241, "BSTAR": 0.0010116548, "MEAN_MOTION_DOT": 1.275e-05, "MEAN_MOTION_DDOT": 0}, "tle": {"line1": "1 31665U 99025CBX 25350.34328145  .00001275  00000+0  10117-2 0  9997", "line2": "2 31665  98.4487  32.9474 0189731 177.2489 182.9759 13.84829693932412"}}, "geometry": {"type": "Point", "coordinates": [-126.59765627961598, 51.06228127424273]}}, {"type": "Feature", "properties": {"norad_id": 31666, "name": "FENGYUN 1C DEB", "group": "fengyun-1c-debris", "lat": -3.3465504822228898, "lon": 151.70079882241876, "alt_km": 622.143441507972, "timestamp": "2025-12-27T06:41:31.210011+00:00", "meta": {"OBJECT_NAME": "FENGYUN 1C DEB", "OBJECT_ID": "1999-025CBY", "EPOCH": "2025-12-24T09:09:21.981024", "MEAN_MOTION": 14.84587842, "ECCENTRICITY": 0.00224944, "INCLINATION": 98.6568, "RA_OF_ASC_NODE": 148.0463, "ARG_OF_PERICENTER": 112.6663, "MEAN_ANOMALY": 247.693, "EPHEMERIS_TYPE": 0, "CLASSIFICATION_TYPE": "U", "NORAD_CAT_ID": 31666, "ELEMENT_SET_NO": 999, "REV_AT_EPOCH": 97444, "BSTAR": 0.0041877062, "MEAN_MOTION_DOT": 0.0003563, "MEAN_MOTION_DDOT": 0}, "tle": {"line1": "1 31666U 99025CBY 25358.38150441  .00035630  00000+0  41877-2 0  9991", "line2": "2 31666  98.6568 148.0463 0022494 112.6663 247.6930 14.84587842974448"}}, "geometry": {"type": "Point", "coordinates": [151.70079882241876, -3.3465504822228898]}}, {"type": "Feature", "properties": {"norad_id": 31667, "name": "FENGYUN 1C DEB", "group": "fengyun-1c-debris", "lat": 11.07788749370234, "lon": 35.541043122205245, "alt_km": 834.7578695332913, "timestamp": "2025-12-27T06:41:31.210021+00:00", "meta": {"OBJECT_NAME": "FENGYUN 1C DEB", "OBJECT_ID": "1999-025CBZ", "EPOCH": "2025-12-19T08:58:22.158048", "MEAN_MOTION": 14.23508815, "ECCENTRICITY": 0.0051766, "INCLINATION": 99.0843, "RA_OF_ASC_NODE": 205.588, "ARG_OF_PERICENTER": 68.7145, "MEAN_ANOMALY": 291.9549, "EPHEMERIS_TYPE": 0, "CLASSIFICATION_TYPE": "U", "NORAD_CAT_ID": 31667, "ELEMENT_SET_NO": 999, "REV_AT_EPOCH": 56087, "BSTAR": 0.00019687, "MEAN_MOTION_DOT": 4.07e-06, "MEAN_MOTION_DDOT": 0}, "tle": {"line1": "1 31667U 99025CBZ 25353.37386757  .00000407  00000+0  19687-3 0  9996", "line2": "2 31667  99.0843 205.5880 0051766  68.7145 291.9549 14.23508815560874"}}, "geometry": {"type": "Point", "coordinates": [35.541043122205245, 11.07788749370234]}}, {"type": "Feature", "properties": {"norad_id": 31672, "name": "FENGYUN 1C DEB", "group": "fengyun-1c-debris", "lat": -59.298761036675316, "lon": -5.582825812012569, "alt_km": 687.5083342813623, "timestamp": "2025-12-27T06:41:31.210033+00:00", "meta": {"OBJECT_NAME": "FENGYUN 1C DEB", "OBJECT_ID": "1999-025CCE", "EPOCH": "2025-12-23T18:50:02.785344", "MEAN_MOTION": 14.51067194, "ECCENTRICITY": 0.01078417, "INCLINATION": 98.956, "RA_OF_ASC_NODE": 186.1002, "ARG_OF_PERICENTER": 308.5705, "MEAN_ANOMALY": 50.5863, "EPHEMERIS_TYPE": 0, "CLASSIFICATION_TYPE": "U", "NORAD_CAT_ID": 31672, "ELEMENT_SET_NO": 999, "REV_AT_EPOCH": 65031, "BSTAR": 0.001730864, "MEAN_MOTION_DOT": 7.342e-05, "MEAN_MOTION_DDOT": 0}, "tle": {"line1": "1 31672U 99025CCE 25357.78475446  .00007342  00000+0  17309-2 0  9998", "line2": "2 31672  98.9560 186.1002 0107841 308.5705  50.5863 14.51067194650315"}}, "geometry": {"type": "Point", "coordinates": [-5.582825812012569, -59.298761036675316]}}, {"type": "Feature", "properties": {"norad_id": 31673, "name": "FENGYUN 1C DEB", "group": "fengyun-1c-debris", "lat": -44.03776971647852, "lon": -153.89342425749237, "alt_km": 735.8109829834384, "timestamp": "2025-12-27T06:41:31.210043+00:00", "meta": {"OBJECT_NAME": "FENGYUN 1C DEB", "OBJECT_ID": "1999-025CCF", "EPOCH": "2025-12-26T07:25:09.303744", "MEAN_MOTION": 14.31959541, "ECCENTRICITY": 0.0125201, "INCLINATION": 99.3737, "RA_OF_ASC_NODE": 195.8686, "ARG_OF_PERICENTER": 10.0185, "MEAN_ANOMALY": 350.3449, "EPHEMERIS_TYPE": 0, "CLASSIFICATION_TYPE": "U", "NORAD_CAT_ID": 31673, "ELEMENT_SET_NO": 999, "REV_AT_EPOCH": 65085, "BSTAR": 0.00022474, "MEAN_MOTION_DOT": 6.04e-06, "MEAN_MOTION_DDOT": 0}, "tle": {"line1": "1 31673U 99025CCF 25360.30913546  .00000604  00000+0  22474-3 0  9993", "line2": "2 31673  99.3737 195.8686 0125201  10.0185 350.3449 14.31959541650853"}}, "geometry": {"type": "Point", "coordinates": [-153.89342425749237, -44.03776971647852]}}, {"type": "Feature", "properties": {"norad_id": 31674, "name": "FENGYUN 1C DEB", "group": "fengyun-1c-debris", "lat": 51.30659947992806, "lon": 27.178714963578532, "alt_km": 731.5917183527054, "timestamp": "2025-12-27T06:41:31.210053+00:00", "meta": {"OBJECT_NAME": "FENGYUN 1C DEB", "OBJECT_ID": "1999-025CCG", "EPOCH": "2025-12-21T19:48:19.306080", "MEAN_MOTION": 14.52041025, "ECCENTRICITY": 0.00251906, "INCLINATION": 98.9259, "RA_OF_ASC_NODE": 32.7017, "ARG_OF_PERICENTER": 257.1305, "MEAN_ANOMALY": 102.7074, "EPHEMERIS_TYPE": 0, "CLASSIFICATION_TYPE": "U", "NORAD_CAT_ID": 31674, "ELEMENT_SET_NO": 999, "REV_AT_EPOCH": 64746, "BSTAR": 0.0020848751, "MEAN_MOTION_DOT": 8.422e-05, "MEAN_MOTION_DDOT": 0}, "tle": {"line1": "1 31674U 99025CCG 25355.82522345  .00008422  00000+0  20849-2 0  9997", "line2": "2 31674  98.9259  32.7017 0025190 257.1305 102.7074 14.52041025647467"}}, "geometry": {"type": "Point", "coordinates": [27.178714963578532, 51.30659947992806]}}]}